[{"OBJECT_NAME":"OBJECT E","OBJECT_ID":"2026-027E","EPOCH":"2026-03-09T23:02:51.074304","MEAN_MOTION":15.18126455,"ECCENTRICITY":0.00095432,"INCLINATION":97.4916,"RA_OF_ASC_NODE":197.9906,"ARG_OF_PERICENTER":204.0559,"MEAN_ANOMALY":156.0231,"EPHEMERIS_TYPE":0,"CLASSIFICATION_TYPE":"U","NORAD_CAT_ID":67750,"ELEMENT_SET_NO":999,"REV_AT_EPOCH":390,"BSTAR":0.00052617812,"MEAN_MOTION_DOT":0.00010689,"MEAN_MOTION_DDOT":0},{"OBJECT_NAME":"DELTA 2 R\/B(1)","OBJECT_ID":"1992-027B","EPOCH":"2026-03-09T19:59:41.933472","MEAN_MOTION":12.22373025,"ECCENTRICITY":0.13573244,"INCLINATION":19.674,"RA_OF_ASC_NODE":269.5661,"ARG_OF_PERICENTER":106.1474,"MEAN_ANOMALY":269.2214,"EPHEMERIS_TYPE":0,"CLASSIFICATION_TYPE":"U","NORAD_CAT_ID":21965,"ELEMENT_SET_NO":999,"REV_AT_EPOCH":50381,"BSTAR":0.00066052045,"MEAN_MOTION_DOT":2.218e-5,"MEAN_MOTION_DDOT":0}]
